[{"PlaceID":1,"PlaceName":"Pergola Paddington","Location":"5 Kingdom St, London, W2 6PY","PlaceType":"Bar"},{"PlaceID":2,"PlaceName":"Elements","Location":"3 Kingdom St, London, W2 6BD","PlaceType":"Restaurant"},{"PlaceID":3,"PlaceName":"Pure","Location":"2 Kingdom St, London, W2 6BD","PlaceType":"Restaurant"},{"PlaceID":4,"PlaceName":"Prince of Wales","Location":"2 Cleveland Terrace, London, W2 5LH","PlaceType":"Restaurant"},{"PlaceID":5,"PlaceName":"The Cleveland Arms","Location":"28 Chilworth St, London, W2 6DT","PlaceType":"Restaurant"},{"PlaceID":6,"PlaceName":"Blizzaro","Location":"18-22 Craven Rd, London, W2 3PX","PlaceType":"Restaurant"},{"PlaceID":7,"PlaceName":"The Bear Pub Paddington","Location":"29 Spring St, London, W2 1JA","PlaceType":"Pub"},{"PlaceID":8,"PlaceName":"Mimos Cafe Bar","Location":"19 London St, London, W2 1HL","PlaceType":"Bar"},{"PlaceID":9,"PlaceName":"The Monkey Puzzle","Location":"30 Southwick St, London, W2 1JQ","PlaceType":"Pub"},{"PlaceID":10,"PlaceName":"Ammo\u2019s Hyde Park","Location":"28 Sussex PI, London, W2 2DN","PlaceType":"Bar"}]